STARLINK-31215          
1 58872U 24019V   26068.48622135  .00003995  00000+0  15458-3 0  9990
2 58872  42.9994 249.8653 0000650 246.3308 113.7475 15.27588758119031
NUSAT-48 (HENRIETTA LE*)
1 60498U 24149AG  26068.80506098  .00012988  00000+0  45212-3 0  9999
2 60498  97.3923 150.8264 0002754 263.3026  96.7901 15.29812597 86946
